NORAD_CAT_ID,OBJECT_NAME,OBJECT_TYPE,EPOCH,MEAN_MOTION,ECCENTRICITY,INCLINATION,RA_OF_ASC_NODE,ARG_OF_PERICENTER,MEAN_ANOMALY,BSTAR,MEAN_MOTION_DOT,MEAN_MOTION_DDOT,TLE_LINE0,TLE_LINE1,TLE_LINE2,SEMIMAJOR_AXIS,PERIOD,APOGEE,PERIGEE,DECAYED
53008.0,STARLINK-4275,PAYLOAD,2023-03-05 22:32:57,15.08851667,0.000134,53.2164,351.0914,61.206,298.9067,0.0011919,0.00018738,0.0,0 STARLINK-4275,1 53008U 22076Y   23064.93955560  .00018738  00000-0  11919-2 0  9990,2 53008  53.2164 351.0914 0001340  61.2060 298.9067 15.08851667 36822,6917.845,95.437,540.637,538.783,0.0
53008.0,STARLINK-4275,PAYLOAD,2023-03-06 01:43:43,15.08864678,0.0001238,53.2171,350.497,61.7927,298.319,0.0015026,0.00023723,0.0,0 STARLINK-4275,1 53008U 22076Y   23065.07203283  .00023723  00000-0  15026-2 0  9997,2 53008  53.2171 350.4970 0001238  61.7927 298.3190 15.08864678 37310,6917.805,95.436,540.526,538.814,0.0
53008.0,STARLINK-4275,PAYLOAD,2023-03-06 19:12:58,15.08830221,7.85e-05,53.2192,347.2286,53.2537,306.8527,0.00028819,4.301e-05,0.0,0 STARLINK-4275,1 53008U 22076Y   23065.80067632  .00004301  00000-0  28819-3 0  9990,2 53008  53.2192 347.2286 0000785  53.2537 306.8527 15.08830221 37424,6917.91,95.438,540.318,539.232,0.0
53008.0,STARLINK-4275,PAYLOAD,2023-03-07 01:34:30,15.08856086,9.33e-05,53.2185,346.0397,57.7605,302.3477,0.00091275,0.00014275,0.0,0 STARLINK-4275,1 53008U 22076Y   23066.06563317  .00014275  00000-0  91275-3 0  9997,2 53008  53.2185 346.0397 0000933  57.7605 302.3477 15.08856086 37462,6917.831,95.437,540.342,539.051,0.0
53008.0,STARLINK-4275,PAYLOAD,2023-03-07 19:03:45,15.08855932,0.000103,53.2174,342.7666,55.4907,304.6182,0.0015401,0.00024318,0.0,0 STARLINK-4275,1 53008U 22076Y   23066.79427694  .00024318  00000-0  15401-2 0  9999,2 53008  53.2174 342.7666 0001030  55.4907 304.6182 15.08855932 37570,6917.832,95.437,540.409,538.984,0.0
53008.0,STARLINK-4275,PAYLOAD,2023-03-08 03:00:40,15.08880248,6.65e-05,53.2172,341.281,85.8177,274.2891,0.0019004,0.0003012,0.0,0 STARLINK-4275,1 53008U 22076Y   23067.12546933  .00030120  00000-0  19004-2 0  9996,2 53008  53.2172 341.2810 0000665  85.8177 274.2891 15.08880248 37625,6917.757,95.435,540.082,539.162,0.0
53008.0,STARLINK-4275,PAYLOAD,2023-03-09 01:16:05,15.08854114,5.25e-05,53.2163,337.1199,131.0851,229.0187,0.002351,0.00037341,0.0,0 STARLINK-4275,1 53008U 22076Y   23068.05283571  .00037341  00000-0  23510-2 0  9994,2 53008  53.2163 337.1199 0000525 131.0851 229.0187 15.08854114 37761,6917.837,95.437,540.065,539.339,0.0
53008.0,STARLINK-4275,PAYLOAD,2023-03-09 17:09:57,15.08828578,8.92e-05,53.2164,334.1451,58.6661,301.4418,0.0027182,0.00043224,0.0,0 STARLINK-4275,1 53008U 22076Y   23068.71524340  .00043224  00000-0  27182-2 0  9995,2 53008  53.2164 334.1451 0000892  58.6661 301.4418 15.08828578 37868,6917.915,95.438,540.397,539.163,0.0
53008.0,STARLINK-4275,PAYLOAD,2023-03-09 21:56:06,15.08853263,0.0001492,53.2163,333.2564,41.4932,318.6173,0.0015818,0.00024985,0.0,0 STARLINK-4275,1 53008U 22076Y   23068.91396211  .00024985  00000-0  15818-2 0  9997,2 53008  53.2163 333.2564 0001492  41.4932 318.6173 15.08853263 37429,6917.84,95.437,540.737,538.673,0.0
53008.0,STARLINK-4275,PAYLOAD,2023-03-10 01:06:52,15.08880706,0.0001284,53.2164,332.6589,56.6668,303.4447,0.0026092,0.00041529,0.0,0 STARLINK-4275,1 53008U 22076Y   23069.04643759  .00041529  00000-0  26092-2 0  9993,2 53008  53.2164 332.6589 0001284  56.6668 303.4447 15.08880706 37915,6917.756,95.435,540.509,538.733,0.0
53008.0,STARLINK-4275,PAYLOAD,2023-03-11 04:08:26,15.08853756,9.15e-05,53.2166,327.6028,92.3077,267.802,0.0010229,0.00016035,0.0,0 STARLINK-4275,1 53008U 22076Y   23070.17252376  .00016035  00000-0  10229-2 0  9999,2 53008  53.2166 327.6028 0000915  92.3077 267.8020 15.08853756 38084,6917.838,95.437,540.336,539.07,0.0
53008.0,STARLINK-4275,PAYLOAD,2023-03-12 02:23:50,15.088516,0.0001044,53.2159,323.4445,55.1845,304.9245,0.00092659,0.00014494,0.0,0 STARLINK-4275,1 53008U 22076Y   23071.09988685  .00014494  00000-0  92659-3 0  9995,2 53008  53.2159 323.4445 0001044  55.1845 304.9245 15.08851600 38221,6917.845,95.437,540.432,538.988,0.0
53008.0,STARLINK-4275,PAYLOAD,2023-03-13 02:14:36,15.0885921,4.66e-05,53.2157,318.9797,157.5058,202.5955,0.00060227,9.315e-05,0.0,0 STARLINK-4275,1 53008U 22076Y   23072.09347465  .00009315  00000-0  60227-3 0  9993,2 53008  53.2157 318.9797 0000466 157.5058 202.5955 15.08859210 38370,6917.822,95.436,540.009,539.364,0.0
53008.0,STARLINK-4275,PAYLOAD,2023-03-14 02:05:24,15.0883105,0.0001343,53.2174,314.5151,118.314,241.7988,3.0079e-05,1.91e-06,0.0,0 STARLINK-4275,1 53008U 22076Y   23073.08708908  .00000191  00000-0  30079-4 0  9992,2 53008  53.2174 314.5151 0001343 118.3140 241.7988 15.08831050 38527,6917.908,95.438,540.702,538.844,0.0
53008.0,STARLINK-4275,PAYLOAD,2023-03-15 00:20:48,15.08854647,0.0001409,53.2164,310.354,99.4786,260.6365,0.00077308,0.00012042,0.0,0 STARLINK-4275,1 53008U 22076Y   23074.01444909  .00012042  00000-0  77308-3 0  9997,2 53008  53.2164 310.3540 0001409  99.4786 260.6365 15.08854647 38661,6917.836,95.437,540.675,538.726,0.0
53008.0,STARLINK-4275,PAYLOAD,2023-03-15 22:36:12,15.08847716,0.0001214,53.2159,306.1913,97.6403,262.4727,0.00037742,5.725e-05,0.0,0 STARLINK-4275,1 53008U 22076Y   23074.94180903  .00005725  00000-0  37742-3 0  9998,2 53008  53.2159 306.1913 0001214  97.6403 262.4727 15.08847716 38337,6917.857,95.437,540.562,538.882,0.0
53008.0,STARLINK-4275,PAYLOAD,2023-03-16 00:11:35,15.08849693,0.0001188,53.216,305.8936,92.2334,267.8794,0.00047452,7.274e-05,0.0,0 STARLINK-4275,1 53008U 22076Y   23075.00804881  .00007274  00000-0  47452-3 0  9994,2 53008  53.2160 305.8936 0001188  92.2334 267.8794 15.08849693 38816,6917.851,95.437,540.538,538.894,0.0
53008.0,STARLINK-4275,PAYLOAD,2023-03-17 00:02:23,15.08829548,0.000101,53.2147,301.4308,93.838,266.2728,0.00024815,3.663e-05,0.0,0 STARLINK-4275,1 53008U 22076Y   23076.00165914  .00003663  00000-0  24815-3 0  9998,2 53008  53.2147 301.4308 0001010  93.8380 266.2728 15.08829548 38961,6917.912,95.438,540.476,539.079,0.0
53008.0,STARLINK-4275,PAYLOAD,2023-03-17 07:59:19,15.08837882,0.0001054,53.2155,299.9455,71.2316,288.879,0.00047597,7.295e-05,0.0,0 STARLINK-4275,1 53008U 22076Y   23076.33286122  .00007295  00000-0  47597-3 0  9996,2 53008  53.2155 299.9455 0001054  71.2316 288.8790 15.08837882 38544,6917.887,95.438,540.481,539.023,0.0
53008.0,STARLINK-4275,PAYLOAD,2023-03-17 20:42:23,15.08856202,9.05e-05,53.2145,297.5663,72.2734,287.8357,0.00078937,0.00012303,0.0,0 STARLINK-4275,1 53008U 22076Y   23076.86277507  .00012303  00000-0  78937-3 0  9999,2 53008  53.2145 297.5663 0000905  72.2734 287.8357 15.08856202 39093,6917.831,95.437,540.322,539.07,0.0
53008.0,STARLINK-4275,PAYLOAD,2023-03-18 01:28:32,15.088767,0.0001177,53.2148,296.6753,63.8824,296.2289,0.0013361,0.00021061,0.0,0 STARLINK-4275,1 53008U 22076Y   23077.06149046  .00021061  00000-0  13361-2 0  9998,2 53008  53.2148 296.6753 0001177  63.8824 296.2289 15.08876700 39121,6917.768,95.435,540.447,538.819,0.0
53008.0,STARLINK-4275,PAYLOAD,2023-03-18 07:50:05,15.08861142,0.0001145,53.2135,295.4848,76.6407,283.4713,0.00055459,8.554e-05,0.0,0 STARLINK-4275,1 53008U 22076Y   23077.32645112  .00008554  00000-0  55459-3 0  9999,2 53008  53.2135 295.4848 0001145  76.6407 283.4713 15.08861142 39161,6917.816,95.436,540.473,538.889,0.0
53008.0,STARLINK-4275,PAYLOAD,2023-03-18 20:33:10,15.08855793,0.0001267,53.215,293.1062,77.3582,282.7552,0.00047861,7.341e-05,0.0,0 STARLINK-4275,1 53008U 22076Y   23077.85637006  .00007341  00000-0  47861-3 0  9991,2 53008  53.2150 293.1062 0001267  77.3582 282.7552 15.08855793 39245,6917.832,95.437,540.574,538.821,0.0
53008.0,STARLINK-4275,PAYLOAD,2023-03-19 07:40:52,15.08847744,0.0001294,53.2133,291.025,81.0971,279.0167,0.0011792,0.00018533,0.0,0 STARLINK-4275,1 53008U 22076Y   23078.32005187  .00018533  00000-0  11792-2 0  9991,2 53008  53.2133 291.0250 0001294  81.0971 279.0167 15.08847744 39312,6917.857,95.437,540.617,538.827,0.0
53008.0,STARLINK-4275,PAYLOAD,2023-03-19 20:23:57,15.08846189,0.0001357,53.2151,288.6454,91.4255,268.6893,0.00053028,8.163e-05,0.0,0 STARLINK-4275,1 53008U 22076Y   23078.84997223  .00008163  00000-0  53028-3 0  9996,2 53008  53.2151 288.6454 0001357  91.4255 268.6893 15.08846189 39390,6917.861,95.437,540.665,538.788,0.0
53008.0,STARLINK-4275,PAYLOAD,2023-03-20 07:31:39,15.08843967,0.0001418,53.2139,286.5641,86.0073,274.1081,0.00038064,5.776e-05,0.0,0 STARLINK-4275,1 53008U 22076Y   23079.31365242  .00005776  00000-0  38064-3 0  9999,2 53008  53.2139 286.5641 0001418  86.0073 274.1081 15.08843967 39467,6917.868,95.437,540.714,538.752,0.0
53008.0,STARLINK-4275,PAYLOAD,2023-03-20 20:14:44,15.08850345,0.0001457,53.2134,284.1843,89.0581,271.0578,0.00039588,6.02e-05,0.0,0 STARLINK-4275,1 53008U 22076Y   23079.84356967  .00006020  00000-0  39588-3 0  9996,2 53008  53.2134 284.1843 0001457  89.0581 271.0578 15.08850345 39072,6917.849,95.437,540.722,538.706,0.0
53008.0,STARLINK-4275,PAYLOAD,2023-03-20 23:25:30,15.08853993,0.0001312,53.2141,283.5907,88.1977,271.9166,0.00040773,6.21e-05,0.0,0 STARLINK-4275,1 53008U 22076Y   23079.97604786  .00006210  00000-0  40773-3 0  9994,2 53008  53.2141 283.5907 0001312  88.1977 271.9166 15.08853993 39099,6917.838,95.437,540.61,538.795,0.0
53008.0,STARLINK-4275,PAYLOAD,2023-03-21 20:05:31,15.08844589,0.0001122,53.2134,279.7241,84.5472,275.5648,7.1188e-05,8.45e-06,0.0,0 STARLINK-4275,1 53008U 22076Y   23080.83716714  .00000845  00000-0  71188-4 0  9999,2 53008  53.2134 279.7241 0001122  84.5472 275.5648 15.08844589 39690,6917.866,95.437,540.508,538.955,0.0
53008.0,STARLINK-4275,PAYLOAD,2023-03-22 05:37:50,15.0883709,0.0001272,53.2148,277.9394,93.8832,266.2306,-4.4151e-05,-9.9e-06,0.0,0 STARLINK-4275,1 53008U 22076Y   23081.23461008 -.00000990  00000-0 -44151-4 0  9990,2 53008  53.2148 277.9394 0001272  93.8832 266.2306 15.08837090 39757,6917.889,95.438,540.634,538.874,0.0
